HONGHU-3_L_00004024-10
1 65186U 24101SQ  26070.40781250  .00000000  00000+0  00000-0 0  9995
2 65186  55.0000 230.0000 0000000   0.0000  83.2000 15.30272033    13
HONGHU-3_L_00004024-11
1 65187U 22960TS  26070.40781250  .00000000  00000+0  00000-0 0  9997
2 65187  55.0000 230.0000 0000000   0.0000  90.4000 15.30272033    14
HONGHU-3_L_00004024-12
1 65188U 24232HT  26070.40781250  .00000000  00000+0  00000-0 0  9992
2 65188  55.0000 230.0000 0000000   0.0000  97.6000 15.30272033    14
HONGHU-3_L_00004024-13
1 65189U 23546BA  26070.40781250  .00000000  00000+0  00000-0 0  9990
2 65189  55.0000 230.0000 0000000   0.0000 104.8000 15.30272033    16
HONGHU-3_L_00004024-14
1 65190U 24903OU  26070.40781250  .00000000  00000+0  00000-0 0  9990
2 65190  55.0000 230.0000 0000000   0.0000 112.0000 15.30272033    19
HONGHU-3_L_00004024-15
1 65191U 25401YS  26070.40781250  .00000000  00000+0  00000-0 0  9995
2 65191  55.0000 230.0000 0000000   0.0000 119.2000 15.30272033    19
HONGHU-3_L_00004024-16
1 65192U 26470QE  26070.40781250  .00000000  00000+0  00000-0 0  9993
2 65192  55.0000 230.0000 0000000   0.0000 126.4000 15.30272033    10
HONGHU-3_L_00004024-17
1 65193U 25410AN  26070.40781250  .00000000  00000+0  00000-0 0  9997
2 65193  55.0000 230.0000 0000000   0.0000 133.6000 15.30272033    11
HONGHU-3_L_00004024-18
1 65194U 23049YU  26070.40781250  .00000000  00000+0  00000-0 0  9994
2 65194  55.0000 230.0000 0000000   0.0000 140.8000 15.30272033    12
HONGHU-3_L_00004024-19
1 65195U 25616ET  26070.40781250  .00000000  00000+0  00000-0 0  9997
2 65195  55.0000 230.0000 0000000   0.0000 148.0000 15.30272033    13
HONGHU-3_L_00004024-20
1 65196U 26348YR  26070.40781250  .00000000  00000+0  00000-0 0  9991
2 65196  55.0000 230.0000 0000000   0.0000 155.2000 15.30272033    14
HONGHU-3_L_00004024-21
1 65197U 25746AV  26070.40781250  .00000000  00000+0  00000-0 0  9993
2 65197  55.0000 230.0000 0000000   0.0000 162.4000 15.30272033    15
HONGHU-3_L_00004024-22
1 65198U 23976FD  26070.40781250  .00000000  00000+0  00000-0 0  9997
2 65198  55.0000 230.0000 0000000   0.0000 169.6000 15.30272033    15
HONGHU-3_L_00004024-23
1 65199U 23984PN  26070.40781250  .00000000  00000+0  00000-0 0  9997
2 65199  55.0000 230.0000 0000000   0.0000 176.8000 15.30272033    16
HONGHU-3_L_00004024-24
1 65200U 23690OO  26070.40781250  .00000000  00000+0  00000-0 0  9994
2 65200  55.0000 230.0000 0000000   0.0000 184.0000 15.30272033    10
HONGHU-3_L_00004024-25
1 65201U 22138XK  26070.40781250  .00000000  00000+0  00000-0 0  9991
2 65201  55.0000 230.0000 0000000   0.0000 191.2000 15.30272033    11
HONGHU-3_L_00004024-26
1 65202U 22952PU  26070.40781250  .00000000  00000+0  00000-0 0  9996
2 65202  55.0000 230.0000 0000000   0.0000 198.4000 15.30272033    11
HONGHU-3_L_00004024-27
1 65203U 23360NM  26070.40781250  .00000000  00000+0  00000-0 0  9991
2 65203  55.0000 230.0000 0000000   0.0000 205.6000 15.30272033    13
HONGHU-3_L_00004024-28
1 65204U 26593MV  26070.40781250  .00000000  00000+0  00000-0 0  9993
2 65204  55.0000 230.0000 0000000   0.0000 212.8000 15.30272033    14
HONGHU-3_L_00004024-29
1 65205U 22395YQ  26070.40781250  .00000000  00000+0  00000-0 0  9990
2 65205  55.0000 230.0000 0000000   0.0000 220.0000 15.30272033    16
HONGHU-3_L_00004024-30
1 65206U 25997UE  26070.40781250  .00000000  00000+0  00000-0 0  9992
2 65206  55.0000 230.0000 0000000   0.0000 227.2000 15.30272033    16
HONGHU-3_L_00004024-31
1 65207U 26561Z   26070.40781250  .00000000  00000+0  00000-0 0  9991
2 65207  55.0000 230.0000 0000000   0.0000 234.4000 15.30272033    17
HONGHU-3_L_00004024-32
1 65208U 26543VH  26070.40781250  .00000000  00000+0  00000-0 0  9992
2 65208  55.0000 230.0000 0000000   0.0000 241.6000 15.30272033    18
HONGHU-3_L_00004024-33
1 65209U 22344ZR  26070.40781250  .00000000  00000+0  00000-0 0  9998
2 65209  55.0000 230.0000 0000000   0.0000 248.8000 15.30272033    18
HONGHU-3_L_00004024-34
1 65210U 23688EY  26070.40781250  .00000000  00000+0  00000-0 0  9992
2 65210  55.0000 230.0000 0000000   0.0000 256.0000 15.30272033    11
HONGHU-3_L_00004024-35
1 65211U 22961WD  26070.40781250  .00000000  00000+0  00000-0 0  9996
2 65211  55.0000 230.0000 0000000   0.0000 263.2000 15.30272033    12
HONGHU-3_L_00004024-36
1 65212U 22608CF  26070.40781250  .00000000  00000+0  00000-0 0  9995
2 65212  55.0000 230.0000 0000000   0.0000 270.4000 15.30272033    13
HONGHU-3_L_00004024-37
1 65213U 23773ER  26070.40781250  .00000000  00000+0  00000-0 0  9990
2 65213  55.0000 230.0000 0000000   0.0000 277.6000 15.30272033    13
HONGHU-3_L_00004024-38
1 65214U 26572RZ  26070.40781250  .00000000  00000+0  00000-0 0  9991
2 65214  55.0000 230.0000 0000000   0.0000 284.8000 15.30272033    14
HONGHU-3_L_00004024-39
1 65215U 25675JX  26070.40781250  .00000000  00000+0  00000-0 0  9995
2 65215  55.0000 230.0000 0000000   0.0000 292.0000 15.30272033    16
HONGHU-3_L_00004024-40
1 65216U 23006FV  26070.40781250  .00000000  00000+0  00000-0 0  9992
2 65216  55.0000 230.0000 0000000   0.0000 299.2000 15.30272033    16
HONGHU-3_L_00004024-41
1 65217U 22112QP  26070.40781250  .00000000  00000+0  00000-0 0  9990
2 65217  55.0000 230.0000 0000000   0.0000 306.4000 15.30272033    18
HONGHU-3_L_00004024-42
1 65218U 22462BM  26070.40781250  .00000000  00000+0  00000-0 0  9999
2 65218  55.0000 230.0000 0000000   0.0000 313.6000 15.30272033    19
HONGHU-3_L_00004024-43
1 65219U 22983KE  26070.40781250  .00000000  00000+0  00000-0 0  9998
2 65219  55.0000 230.0000 0000000   0.0000 320.8000 15.30272033    10
HONGHU-3_L_00004024-44
1 65220U 22643UW  26070.40781250  .00000000  00000+0  00000-0 0  9993
2 65220  55.0000 230.0000 0000000   0.0000 328.0000 15.30272033    12
HONGHU-3_L_00004024-45
1 65221U 24345SP  26070.40781250  .00000000  00000+0  00000-0 0  9995
2 65221  55.0000 230.0000 0000000   0.0000 335.2000 15.30272033    13
HONGHU-3_L_00004024-46
1 65222U 23015JN  26070.40781250  .00000000  00000+0  00000-0 0  9999
2 65222  55.0000 230.0000 0000000   0.0000 342.4000 15.30272033    14
HONGHU-3_L_00004024-47
1 65223U 24463ZT  26070.40781250  .00000000  00000+0  00000-0 0  9998
2 65223  55.0000 230.0000 0000000   0.0000 349.6000 15.30272033    14
HONGHU-3_L_00004024-48
1 65224U 24081LY  26070.40781250  .00000000  00000+0  00000-0 0  9995
2 65224  55.0000 230.0000 0000000   0.0000 356.8000 15.30272033    15
HONGHU-3_L_00004024-49
1 65225U 25448VB  26070.40781250  .00000000  00000+0  00000-0 0  9994
2 65225  55.0000 230.0000 0000000   0.0000   4.0000 15.30272033    18
HONGHU-3_L_00004024-50
1 65226U 23524UB  26070.40781250  .00000000  00000+0  00000-0 0  9998
2 65226  55.0000 230.0000 0000000   0.0000  11.2000 15.30272033    19
HONGHU-3_L_00004025-01
1 65227U 24184TO  26070.40781250  .00000000  00000+0  00000-0 0  9992
2 65227  55.0000 240.0000 0000000   0.0000  19.2000 15.30272033    19
HONGHU-3_L_00004025-02
1 65228U 24123MN  26070.40781250  .00000000  00000+0  00000-0 0  9996
2 65228  55.0000 240.0000 0000000   0.0000  26.4000 15.30272033    10
HONGHU-3_L_00004025-03
1 65229U 26235DR  26070.40781250  .00000000  00000+0  00000-0 0  9993
2 65229  55.0000 240.0000 0000000   0.0000  33.6000 15.30272033    11
HONGHU-3_L_00004025-04
1 65230U 24788MG  26070.40781250  .00000000  00000+0  00000-0 0  9996
2 65230  55.0000 240.0000 0000000   0.0000  40.8000 15.30272033    13
HONGHU-3_L_00004025-05
1 65231U 23481WJ  26070.40781250  .00000000  00000+0  00000-0 0  9996
2 65231  55.0000 240.0000 0000000   0.0000  48.0000 15.30272033    14
HONGHU-3_L_00004025-06
1 65232U 22923DQ  26070.40781250  .00000000  00000+0  00000-0 0  9997
2 65232  55.0000 240.0000 0000000   0.0000  55.2000 15.30272033    15
HONGHU-3_L_00004025-07
1 65233U 26092ZM  26070.40781250  .00000000  00000+0  00000-0 0  9999
2 65233  55.0000 240.0000 0000000   0.0000  62.4000 15.30272033    16
HONGHU-3_L_00004025-08
1 65234U 26575QL  26070.40781250  .00000000  00000+0  00000-0 0  9996
2 65234  55.0000 240.0000 0000000   0.0000  69.6000 15.30272033    16
HONGHU-3_L_00004025-09
1 65235U 26868WG  26070.40781250  .00000000  00000+0  00000-0 0  9992
2 65235  55.0000 240.0000 0000000   0.0000  76.8000 15.30272033    17
HONGHU-3_L_00004025-10
1 65236U 24505QH  26070.40781250  .00000000  00000+0  00000-0 0  9999
2 65236  55.0000 240.0000 0000000   0.0000  84.0000 15.30272033    19
HONGHU-3_L_00004025-11
1 65237U 24252FH  26070.40781250  .00000000  00000+0  00000-0 0  9999
2 65237  55.0000 240.0000 0000000   0.0000  91.2000 15.30272033    10
HONGHU-3_L_00004025-12
1 65238U 22984W   26070.40781250  .00000000  00000+0  00000-0 0  9990
2 65238  55.0000 240.0000 0000000   0.0000  98.4000 15.30272033    10
HONGHU-3_L_00004025-13
1 65239U 26303MX  26070.40781250  .00000000  00000+0  00000-0 0  9990
2 65239  55.0000 240.0000 0000000   0.0000 105.6000 15.30272033    12
HONGHU-3_L_00004025-14
1 65240U 22839IL  26070.40781250  .00000000  00000+0  00000-0 0  9992
2 65240  55.0000 240.0000 0000000   0.0000 112.8000 15.30272033    14
HONGHU-3_L_00004025-15
1 65241U 26644QH  26070.40781250  .00000000  00000+0  00000-0 0  9991
2 65241  55.0000 240.0000 0000000   0.0000 120.0000 15.30272033    16
HONGHU-3_L_00004025-16
1 65242U 23391TP  26070.40781250  .00000000  00000+0  00000-0 0  9998
2 65242  55.0000 240.0000 0000000   0.0000 127.2000 15.30272033    16
HONGHU-3_L_00004025-17
1 65243U 26065DP  26070.40781250  .00000000  00000+0  00000-0 0  9990
2 65243  55.0000 240.0000 0000000   0.0000 134.4000 15.30272033    17
HONGHU-3_L_00004025-18
1 65244U 26004PB  26070.40781250  .00000000  00000+0  00000-0 0  9994
2 65244  55.0000 240.0000 0000000   0.0000 141.6000 15.30272033    18
HONGHU-3_L_00004025-19
1 65245U 26040Q   26070.40781250  .00000000  00000+0  00000-0 0  9995
2 65245  55.0000 240.0000 0000000   0.0000 148.8000 15.30272033    18
HONGHU-3_L_00004025-20
1 65246U 22788GH  26070.40781250  .00000000  00000+0  00000-0 0  9991
2 65246  55.0000 240.0000 0000000   0.0000 156.0000 15.30272033    10
